STARLINK-5271           
1 54194U 22141AP  26177.82174004 -.00000172  00000+0  72928-5 0  9995
2 54194  53.1574 224.0133 0001075  80.4455 279.6658 15.08833242202478
STARLINK-5258           
1 54195U 22141AQ  26177.83279586  .00000260  00000+0  34452-4 0  9994
2 54195  53.1584 224.0830 0001033  76.9601 283.1506 15.08831007202470
STARLINK-5237           
1 54196U 22141AR  26177.41692588 -.00000053  00000+0  14772-4 0  9994
2 54196  53.1580 225.7553 0001063  86.4767 273.6346 15.08834252202414
STARLINK-5246           
1 54198U 22141AT  26177.54571775  .00000005  00000+0  18390-4 0  9990
2 54198  53.1577 225.1388 0001013  80.8531 279.2575 15.08839950202432
STARLINK-5244           
1 54199U 22141AU  26177.81805269 -.00000233  00000+0  34745-5 0  9996
2 54199  53.1579 223.9916 0001079  83.5872 276.5242 15.08832202202476
STARLINK-5250           
1 54200U 22141AV  26177.53835341 -.00000168  00000+0  75189-5 0  9996
2 54200  53.1578 225.0927 0001187  79.8429 280.2696 15.08833248202431
STARLINK-5199           
1 54201U 22141AW  26177.82542430 -.00000103  00000+0  11648-4 0  9991
2 54201  53.1583 224.0320 0001079  85.0033 275.1081 15.08830702202471
STARLINK-5205           
1 54202U 22141AX  26177.86218484 -.00000351  00000+0 -39740-5 0  9995
2 54202  53.1590 223.5577 0001072  81.9403 278.1710 15.08832301202487
STARLINK-5247           
1 54203U 22141AY  26178.20444308 -.00000419  00000+0 -82757-5 0  9992
2 54203  53.1587 222.1375 0000561   2.4660 357.6334 15.08838513202532
STARLINK-5241           
1 54204U 22141AZ  26177.85115108  .00001763  00000+0  12887-3 0  9992
2 54204  53.1588 223.4886 0000641  65.8334 294.2724 15.08823869202486
STARLINK-5249           
1 54205U 22141BA  26177.85850015 -.00000248  00000+0  24791-5 0  9993
2 54205  53.1590 223.5348 0001049  84.7119 275.3992 15.08832777202483
STARLINK-5264           
1 54206U 22141BB  26178.20214992  .00000456  00000+0  46708-4 0  9993
2 54206  53.1599 187.1818 0001218  87.7294 272.3837 15.08841995203023
STARLINK-5262           
1 54207U 22141BC  26177.85481673  .00000004  00000+0  18335-4 0  9990
2 54207  53.1588 223.5122 0001067  85.1874 274.9240 15.08832043202482
STARLINK-5255           
1 54208U 22141BD  26178.22333384 -.00000089  00000+0  12500-4 0  9990
2 54208  53.1579 197.2946 0001079  83.1840 276.9274 15.08828640202889
STARLINK-5259           
1 54209U 22141BE  26177.39574470 -.00000063  00000+0  14145-4 0  9990
2 54209  53.1580 215.6265 0001090  77.9512 282.1601 15.08835877202558
SHIYAN-20C (SY-20C)     
1 54214U 22142A   26178.17442532  .00000007  00000+0  56022-4 0  9994
2 54214  59.9964 267.3440 0011852 341.4621  18.5981 14.29557883191122
CSS (MENGTIAN)          
1 54216U 22143A   26178.14946689  .00024702  00000+0  28574-3 0  9994
2 54216  41.4689 261.3566 0008110 161.5819 198.5315 15.61243807295513
LDPE-2                  
1 54219U 22144A   26177.60922483  .00000117  00000+0  00000+0 0  9998
2 54219   5.6354  63.5782 0002072  92.4698 189.4405  1.00537609 11932
COSMOS 2563             
1 54223U 22145A   26177.15896682 -.00001080  00000+0  00000+0 0  9996
2 54223  63.2458 279.4023 7039673 269.7297  16.8335  2.00660465 26744
EUTELSAT HOTBIRD 13G    
1 54225U 22146A   26177.52567102  .00000098  00000+0  00000+0 0  9999
2 54225   0.0522 212.2213 0002041 321.3793 303.2805  1.00270897  7560
MATS                    
1 54227U 22147A   26178.01949097  .00004352  00000+0  30715-3 0  9991
2 54227  97.6819 179.5731 0013082 160.2092 199.9645 15.05411662199248
ZHONGXING-19            
1 54230U 22148A   26178.11989126 -.00000070  00000+0  00000+0 0  9998
2 54230   0.0328  79.0274 0002861  35.1320   7.4419  1.00272740 13483
NOAA 21 (JPSS-2)        
1 54234U 22150A   26178.11347065  .00000018  00000+0  29413-4 0  9990
2 54234  98.7061 116.7360 0002226 137.6929 222.4419 14.19538154187959
YUNHAI-3 01             
1 54235U 22151A   26178.19229128 -.00000010  00000+0  18220-4 0  9996
2 54235  98.8166 185.4587 0002350  87.4501 272.6940 14.13368673186357
GALAXY 31 (G-31)        
1 54243U 22153A   26178.10391876  .00000000  00000+0  00000+0 0  9998
2 54243   0.0202  25.5719 0001659  75.5418  90.5120  1.00270011  7235
GALAXY 32 (G-32)        
1 54244U 22153B   26178.14666052 -.00000163  00000+0  00000+0 0  9995
2 54244   0.0132  33.1835 0002070  14.2142 189.6632  1.00271923 13243
YAOGAN-34 03            
1 54249U 22154A   26178.20082554 -.00000067  00000+0  38412-4 0  9993
2 54249  63.4050 236.4709 0077357 355.5300   4.5027 13.45439987177607
JILIN-1 GAOFEN 03D08    
1 54251U 22155A   26178.20245706  .00065076  00000+0  64751-3 0  9991
2 54251  97.6208 324.4050 0003072 293.7184  66.3752 15.65511924201387
JILIN-1 GAOFEN 03D51    
1 54252U 22155B   26178.21555307  .00054681  00000+0  59959-3 0  9998
2 54252  97.6229 323.8024 0003322 301.9625  58.1309 15.63078174201318
JILIN-1 GAOFEN 03D53    
1 54253U 22155C   26178.20592117  .00034308  00000+0  54338-3 0  9998
2 54253  97.6220 319.2877 0004589 330.6262  29.4732 15.53340837201045
