OBJECT_NAME,OBJECT_ID,EPOCH,MEAN_MOTION,ECCENTRICITY,INCLINATION,RA_OF_ASC_NODE,ARG_OF_PERICENTER,MEAN_ANOMALY,EPHEMERIS_TYPE,CLASSIFICATION_TYPE,NORAD_CAT_ID,ELEMENT_SET_NO,REV_AT_EPOCH,BSTAR,MEAN_MOTION_DOT,MEAN_MOTION_DDOT
STARLINK-5271,2022-141AP,2026-06-26T19:43:18.339456,15.08833242,.0001075,53.1574,224.0133,80.4455,279.6658,0,U,54194,999,20247,.7292814E-5,-.172E-5,0
STARLINK-5258,2022-141AQ,2026-06-26T19:59:13.562304,15.08831007,.00010332,53.1584,224.0830,76.9601,283.1506,0,U,54195,999,20247,.34452145E-4,.26E-5,0
STARLINK-5237,2022-141AR,2026-06-26T10:00:22.396032,15.08834252,.0001063,53.1580,225.7553,86.4767,273.6346,0,U,54196,999,20241,.14772E-4,-.53E-6,0
STARLINK-5246,2022-141AT,2026-06-26T13:05:50.013600,15.08839950,.0001013,53.1577,225.1388,80.8531,279.2575,0,U,54198,999,20243,.1839E-4,.5E-7,0
STARLINK-5244,2022-141AU,2026-06-26T19:37:59.752416,15.08832202,.00010795,53.1579,223.9916,83.5872,276.5242,0,U,54199,999,20247,.3474542E-5,-.233E-5,0
STARLINK-5250,2022-141AV,2026-06-26T12:55:13.734624,15.08833248,.0001187,53.1578,225.0927,79.8429,280.2696,0,U,54200,999,20243,.75189E-5,-.168E-5,0
STARLINK-5199,2022-141AW,2026-06-26T19:48:36.659520,15.08830702,.00010798,53.1583,224.0320,85.0033,275.1081,0,U,54201,999,20247,.11648111E-4,-.103E-5,0
STARLINK-5205,2022-141AX,2026-06-26T20:41:32.770176,15.08832301,.0001072,53.1590,223.5577,81.9403,278.1710,0,U,54202,999,20248,-.3974E-5,-.351E-5,0
STARLINK-5247,2022-141AY,2026-06-27T04:54:23.882112,15.08838513,.0000561,53.1587,222.1375,2.4660,357.6334,0,U,54203,999,20253,-.82757E-5,-.419E-5,0
STARLINK-5241,2022-141AZ,2026-06-26T20:25:39.453312,15.08823869,.00006412,53.1588,223.4886,65.8334,294.2724,0,U,54204,999,20248,.12887395E-3,.1763E-4,0
STARLINK-5249,2022-141BA,2026-06-26T20:36:14.412960,15.08832777,.00010497,53.1590,223.5348,84.7119,275.3992,0,U,54205,999,20248,.247914E-5,-.248E-5,0
STARLINK-5264,2022-141BB,2026-06-27T04:51:05.753088,15.08841995,.0001218,53.1599,187.1818,87.7294,272.3837,0,U,54206,999,20302,.46708E-4,.456E-5,0
STARLINK-5262,2022-141BC,2026-06-26T20:30:56.165472,15.08832043,.00010673,53.1588,223.5122,85.1874,274.9240,0,U,54207,999,20248,.18335206E-4,.4E-7,0
STARLINK-5255,2022-141BD,2026-06-27T05:21:36.043776,15.08828640,.0001079,53.1579,197.2946,83.1840,276.9274,0,U,54208,999,20288,.125E-4,-.89E-6,0
STARLINK-5259,2022-141BE,2026-06-26T09:29:52.342080,15.08835877,.000109,53.1580,215.6265,77.9512,282.1601,0,U,54209,999,20255,.14145E-4,-.63E-6,0
SHIYAN-20C (SY-20C),2022-142A,2026-06-27T04:11:10.347648,14.29557883,.0011852,59.9964,267.3440,341.4621,18.5981,0,U,54214,999,19112,.56022E-4,.7E-7,0
CSS (MENGTIAN),2022-143A,2026-06-27T03:35:13.939296,15.61243807,.000811,41.4689,261.3566,161.5819,198.5315,0,U,54216,999,29551,.28574E-3,.24702E-3,0
LDPE-2,2022-144A,2026-06-26T14:37:17.025312,1.00537609,.00020727,5.6354,63.5782,92.4698,189.4405,0,U,54219,999,1193,0,.117E-5,0
COSMOS 2563,2022-145A,2026-06-26T03:48:54.733248,2.00660465,.7039673,63.2458,279.4023,269.7297,16.8335,0,U,54223,999,2674,0,-.108E-4,0
EUTELSAT HOTBIRD 13G,2022-146A,2026-06-26T12:36:57.976128,1.00270897,.0002041,0.0522,212.2213,321.3793,303.2805,0,U,54225,999,756,0,.98E-6,0
MATS,2022-147A,2026-06-27T00:28:04.019808,15.05411662,.0013082,97.6819,179.5731,160.2092,199.9645,0,U,54227,999,19924,.30715E-3,.4352E-4,0
ZHONGXING-19,2022-148A,2026-06-27T02:52:38.604864,1.00272740,.0002861,0.0328,79.0274,35.1320,7.4419,0,U,54230,999,1348,0,-.7E-6,0
NOAA 21 (JPSS-2),2022-150A,2026-06-27T02:43:23.864160,14.19538154,.0002226,98.7061,116.7360,137.6929,222.4419,0,U,54234,999,18795,.29413E-4,.18E-6,0
YUNHAI-3 01,2022-151A,2026-06-27T04:36:53.966592,14.13368673,.000235,98.8166,185.4587,87.4501,272.6940,0,U,54235,999,18635,.1822E-4,-.1E-6,0
GALAXY 31 (G-31),2022-153A,2026-06-27T02:29:38.580864,1.00270011,.0001659,0.0202,25.5719,75.5418,90.5120,0,U,54243,999,723,0,0,0
GALAXY 32 (G-32),2022-153B,2026-06-27T03:31:11.468928,1.00271923,.000207,0.0132,33.1835,14.2142,189.6632,0,U,54244,999,1324,0,-.163E-5,0
YAOGAN-34 03,2022-154A,2026-06-27T04:49:11.326656,13.45439987,.0077357,63.4050,236.4709,355.5300,4.5027,0,U,54249,999,17760,.38412E-4,-.67E-6,0
JILIN-1 GAOFEN 03D08,2022-155A,2026-06-27T04:51:32.289984,15.65511924,.0003072,97.6208,324.4050,293.7184,66.3752,0,U,54251,999,20138,.64751E-3,.65076E-3,0
JILIN-1 GAOFEN 03D51,2022-155B,2026-06-27T05:10:23.785248,15.63078174,.0003322,97.6229,323.8024,301.9625,58.1309,0,U,54252,999,20131,.59959E-3,.54681E-3,0
JILIN-1 GAOFEN 03D53,2022-155C,2026-06-27T04:56:31.589088,15.53340837,.0004589,97.6220,319.2877,330.6262,29.4732,0,U,54253,999,20104,.54338E-3,.34308E-3,0
